0 SL-6 R/B(2)
1 10485U 77105E   13287.05461397  .00000173  00000-0  00000+0 0  6025
2 10485 063.4115 147.4185 7021238 258.8441 347.5550 01.97230442258786
0 SL-6 R/B(2)
1 10485U 77105E   13294.20060852  .00001238  00000-0  00000+0 0  6035
2 10485 063.4101 146.5965 7024402 258.8129 021.4649 01.97230991258928
0 SL-6 R/B(2)
1 10485U 77105E   13294.51457672  .00001233  00000-0  00000+0 0  6045
2 10485 063.4132 146.5569 7024168 258.8133 244.3837 01.97232558258933
